stk.v.11.0
WrittenBy    formation-sat-exporter

BEGIN Ephemeris
    NumberOfEphemerisPoints 181
    ScenarioEpoch 21 Mar 2026 07:38:40.000000000 UTCG
    InterpolationMethod     Lagrange
    InterpolationOrder      7
    CentralBody             Earth
    CoordinateSystem        TEME
    DistanceUnit            Kilometers

    BEGIN EphemerisTimePosVel
        0.000000000  5.80586608342269e+03 -1.39245401686378e+03  3.45503934898735e+03 -3.93553153349925e+00 -2.65100381152472e-01  6.49808433389571e+00
        1.000000000  5.80193055188919e+03 -1.39271911724493e+03  3.46153743332125e+03 -3.93905414445093e+00 -2.64253730726661e-01  6.49598272351478e+00
        2.000000000  5.79798797513379e+03 -1.39298252432523e+03  3.46803131443438e+03 -3.94609697252791e+00 -2.62560269941576e-01  6.49177555984352e+00
        3.000000000  5.79403835794414e+03 -1.39324423778481e+03  3.47452098444094e+03 -3.95313500867924e+00 -2.60866490317741e-01  6.48756051291362e+00
        4.000000000  5.79008170511643e+03 -1.39350425730587e+03  3.48100643546021e+03 -3.96016824435769e+00 -2.59172393911867e-01  6.48333758784365e+00
        5.000000000  5.78611802145542e+03 -1.39376258257264e+03  3.48748765961662e+03 -3.96719667102303e+00 -2.57477982781129e-01  6.47910678976099e+00
        6.000000000  5.78214731177439e+03 -1.39401921327143e+03  3.49396464903973e+03 -3.97422028014204e+00 -2.55783258983167e-01  6.47486812380445e+00
        7.000000000  5.77816958089514e+03 -1.39427414909060e+03  3.50043739586423e+03 -3.98123906318331e+00 -2.54088224575971e-01  6.47062159511982e+00
        8.000000000  5.77418483364802e+03 -1.39452738972058e+03  3.50690589222997e+03 -3.98825301162573e+00 -2.52392881617998e-01  6.46636720886547e+00
        9.000000000  5.77019307487189e+03 -1.39477893485384e+03  3.51337013028196e+03 -3.99526211695094e+00 -2.50697232167702e-01  6.46210497020721e+00
        10.000000000  5.76619430941412e+03 -1.39502878418492e+03  3.51983010217039e+03 -4.00226637064572e+00 -2.49001278284122e-01  6.45783488431922e+00
        11.000000000  5.76218854213060e+03 -1.39527693741041e+03  3.52628580005060e+03 -4.00926576420758e+00 -2.47305022027111e-01  6.45355695638922e+00
        12.000000000  5.75817577788570e+03 -1.39552339422897e+03  3.53273721608317e+03 -4.01626028913539e+00 -2.45608465456520e-01  6.44927119161119e+00
        13.000000000  5.75415602155232e+03 -1.39576815434132e+03  3.53918434243383e+03 -4.02324993693456e+00 -2.43911610632436e-01  6.44497759518842e+00
        14.000000000  5.75012927801183e+03 -1.39601121745024e+03  3.54562717127354e+03 -4.03023469911842e+00 -2.42214459615061e-01  6.44067617233586e+00
        15.000000000  5.74609555215409e+03 -1.39625258326055e+03  3.55206569477850e+03 -4.03721456720447e+00 -2.40517014465644e-01  6.43636692827754e+00
        16.000000000  5.74205484887743e+03 -1.39649225147917e+03  3.55849990513010e+03 -4.04418953271769e+00 -2.38819277245551e-01  6.43204986824538e+00
        17.000000000  5.73800717308865e+03 -1.39673022181504e+03  3.56492979451499e+03 -4.05115958718723e+00 -2.37121250016498e-01  6.42772499748226e+00
        18.000000000  5.73395252970305e+03 -1.39696649397920e+03  3.57135535512506e+03 -4.05812472214876e+00 -2.35422934840317e-01  6.42339232124039e+00
        19.000000000  5.72989092364436e+03 -1.39720106768472e+03  3.57777657915747e+03 -4.06508492914448e+00 -2.33724333779072e-01  6.41905184477940e+00
        20.000000000  5.72582235984476e+03 -1.39743394264676e+03  3.58419345881462e+03 -4.07204019972309e+00 -2.32025448895758e-01  6.41470357337198e+00
        21.000000000  5.72174684324491e+03 -1.39766511858252e+03  3.59060598630421e+03 -4.07899052543752e+00 -2.30326282253489e-01  6.41034751229803e+00
        22.000000000  5.71766437879389e+03 -1.39789459521127e+03  3.59701415383922e+03 -4.08593589784671e+00 -2.28626835915609e-01  6.40598366684700e+00
        23.000000000  5.71357497144922e+03 -1.39812237225435e+03  3.60341795363791e+03 -4.09287630851939e+00 -2.26927111945697e-01  6.40161204231810e+00
        24.000000000  5.70947862617685e+03 -1.39834844943516e+03  3.60981737792385e+03 -4.09981174902571e+00 -2.25227112407680e-01  6.39723264401942e+00
        25.000000000  5.70537534795116e+03 -1.39857282647916e+03  3.61621241892595e+03 -4.10674221094372e+00 -2.23526839366183e-01  6.39284547727089e+00
        26.000000000  5.70126514175496e+03 -1.39879550311389e+03  3.62260306887839e+03 -4.11366768585798e+00 -2.21826294885948e-01  6.38845054739830e+00
        27.000000000  5.69714801257945e+03 -1.39901647906893e+03  3.62898932002074e+03 -4.12058816535724e+00 -2.20125481031951e-01  6.38404785973928e+00
        28.000000000  5.69302396542425e+03 -1.39923575407595e+03  3.63537116459787e+03 -4.12750364103960e+00 -2.18424399869633e-01  6.37963741964102e+00
        29.000000000  5.68889300529737e+03 -1.39945332786867e+03  3.64174859486002e+03 -4.13441410450498e+00 -2.16723053464433e-01  6.37521923245746e+00
        30.000000000  5.68475513721524e+03 -1.39966920018288e+03  3.64812160306279e+03 -4.14131954736309e+00 -2.15021443882491e-01  6.37079330355465e+00
        31.000000000  5.68061036620264e+03 -1.39988337075644e+03  3.65449018146713e+03 -4.14821996122971e+00 -2.13319573190413e-01  6.36635963830794e+00
        32.000000000  5.67645869729278e+03 -1.40009583932926e+03  3.66085432233940e+03 -4.15511533772340e+00 -2.11617443454801e-01  6.36191824210016e+00
        33.000000000  5.67230013552720e+03 -1.40030660564335e+03  3.66721401795133e+03 -4.16200566847110e+00 -2.09915056742146e-01  6.35746912032575e+00
        34.000000000  5.66813468595583e+03 -1.40051566944275e+03  3.67356926058006e+03 -4.16889094510488e+00 -2.08212415120099e-01  6.35301227838732e+00
        35.000000000  5.66396235363699e+03 -1.40072303047359e+03  3.67992004250811e+03 -4.17577115926566e+00 -2.06509520656546e-01  6.34854772169585e+00
        36.000000000  5.65978314363730e+03 -1.40092868848406e+03  3.68626635602345e+03 -4.18264630259760e+00 -2.04806375418790e-01  6.34407545567397e+00
        37.000000000  5.65559706103179e+03 -1.40113264322443e+03  3.69260819341946e+03 -4.18951636675047e+00 -2.03102981475415e-01  6.33959548575268e+00
        38.000000000  5.65140411090380e+03 -1.40133489444701e+03  3.69894554699495e+03 -4.19638134338194e+00 -2.01399340895005e-01  6.33510781737161e+00
        39.000000000  5.64720429834503e+03 -1.40153544190622e+03  3.70527840905420e+03 -4.20324122415763e+00 -1.99695455746027e-01  6.33061245598039e+00
        40.000000000  5.64299762845549e+03 -1.40173428535850e+03  3.71160677190691e+03 -4.21009600074776e+00 -1.97991328097531e-01  6.32610940703820e+00
        41.000000000  5.63878410634353e+03 -1.40193142456241e+03  3.71793062786828e+03 -4.21694566482445e+00 -1.96286960019264e-01  6.32159867601306e+00
        42.000000000  5.63456373712584e+03 -1.40212685927854e+03  3.72424996925894e+03 -4.22379020807194e+00 -1.94582353581092e-01  6.31708026838349e+00
        43.000000000  5.63033652592739e+03 -1.40232058926957e+03  3.73056478840504e+03 -4.23062962217955e+00 -1.92877510852763e-01  6.31255418963474e+00
        44.000000000  5.62610247788148e+03 -1.40251261430025e+03  3.73687507763821e+03 -4.23746389883989e+00 -1.91172433904139e-01  6.30802044526395e+00
        45.000000000  5.62186159812971e+03 -1.40270293413738e+03  3.74318082929557e+03 -4.24429302975489e+00 -1.89467124806019e-01  6.30347904077661e+00
        46.000000000  5.61761389182197e+03 -1.40289154854986e+03  3.74948203571976e+03 -4.25111700663203e+00 -1.87761585629662e-01  6.29892998168804e+00
        47.000000000  5.61335936411645e+03 -1.40307845730864e+03  3.75577868925895e+03 -4.25793582118442e+00 -1.86055818445864e-01  6.29437327352213e+00
        48.000000000  5.60909802017960e+03 -1.40326366018675e+03  3.76207078226681e+03 -4.26474946513074e+00 -1.84349825325888e-01  6.28980892181094e+00
        49.000000000  5.60482986518618e+03 -1.40344715695929e+03  3.76835830710257e+03 -4.27155793019803e+00 -1.82643608341576e-01  6.28523693209910e+00
        50.000000000  5.60055490431920e+03 -1.40362894740343e+03  3.77464125613100e+03 -4.27836120811850e+00 -1.80937169564771e-01  6.28065730993776e+00
        51.000000000  5.59627314276995e+03 -1.40380903129842e+03  3.78091962172244e+03 -4.28515929062851e+00 -1.79230511067552e-01  6.27607006088737e+00
        52.000000000  5.59198458573795e+03 -1.40398740842557e+03  3.78719339625278e+03 -4.29195216947468e+00 -1.77523634922807e-01  6.27147519051959e+00
        53.000000000  5.58768923843100e+03 -1.40416407856827e+03  3.79346257210348e+03 -4.29873983640922e+00 -1.75816543202964e-01  6.26687270441465e+00
        54.000000000  5.58338710606513e+03 -1.40433904151198e+03  3.79972714166161e+03 -4.30552228318760e+00 -1.74109237981029e-01  6.26226260815980e+00
        55.000000000  5.57907819386462e+03 -1.40451229704423e+03  3.80598709731980e+03 -4.31229950157274e+00 -1.72401721330360e-01  6.25764490735414e+00
        56.000000000  5.57476250706198e+03 -1.40468384495464e+03  3.81224243147632e+03 -4.31907148333779e+00 -1.70693995324429e-01  6.25301960760611e+00
        57.000000000  5.57044005089794e+03 -1.40485368503488e+03  3.81849313653501e+03 -4.32583822025731e+00 -1.68986062037060e-01  6.24838671453111e+00
        58.000000000  5.56611083062147e+03 -1.40502181707871e+03  3.82473920490538e+03 -4.33259970411332e+00 -1.67277923542191e-01  6.24374623375526e+00
        59.000000000  5.56177485148972e+03 -1.40518824088196e+03  3.83098062900253e+03 -4.33935592669807e+00 -1.65569581913995e-01  6.23909817091445e+00
        60.000000000  5.55743211876807e+03 -1.40535295624254e+03  3.83721740124721e+03 -4.34610687980382e+00 -1.63861039227108e-01  6.23444253165205e+00
        61.000000000  5.55308263773011e+03 -1.40551596296042e+03  3.84344951406583e+03 -4.35285255523399e+00 -1.62152297556517e-01  6.22977932162164e+00
    END EphemerisTimePosVel
END Ephemeris
